#dP2023  5 28  6  0  0.00000000      96 __u+U ITR00 EXT  IAC
## 2264  21600.00000000   900.00000000 60092 0.2500000000000
+  119   C06C07C08C09C10C11C12C13C14C16C19C20C21C22C23C24C25
+        C26C27C28C29C30C32C33C34C35C36C37C38C39C40C41C42C43
+        C44C45C46E02E03E04E05E07E08E09E10E11E12E13E14E15E18
+        E19E21E24E25E26E27E30E31E33E34E36G01G02G03G04G05G06
+        G07G08G09G10G11G12G13G14G15G16G17G18G19G20G21G22G23
+        G24G25G26G27G28G29G30G31G32J02J03J04R01R02R03R04R05
+        R07R08R09R11R12R13R14R15R16R17R18R19R20R21R22R24R25
++        11  9 10 11  9  8  8 12  8  9  8  8  9 10  8  8 10
++         9  8  9  8  9  9  8  8  9  9  9  9  8  9  8  9  8
++         8  9  8  8  8  8  8  8  8  8  8  8  8  8  8  8  7
++         8  8  8  8  8  7  8  8  8  8  8  8  8  8  8  7  8
++         8  8  8  8  8 10  8  8  8  9  7  8  8  8  8  8  8
++         8  8  8  8  7  8  8  7  8  8  9  9  8  8  8  8  8
++         9 10  8  9  8  8  7  9  9  9  8  9  8  8  8  9  8
%c M  cc GPS ccc cccc cccc cccc cccc ccccc ccccc ccccc ccccc
%c cc cc ccc ccc cccc cccc cccc cccc ccccc ccccc ccccc ccccc
%f  0.0000000  0.000000000  0.00000000000  0.000000000000000
%f  0.0000000  0.000000000  0.00000000000  0.000000000000000
%i    0    0    0    0      0      0      0      0         0
%i    0    0    0    0      0      0      0      0         0
/* IAC                                ULTRA-RAPID PREDICTION
/* S/V CLOCKS ARE ALIGNED TO GNSS TIME                      
/* G:C1WC2W R:C1PC2P E:C1XC5X C:C2IC6I J:C1CC2S             
/* PCV:IGS20_2247 OL/AL:FES2004  NONE     YN ORB:CoN CLK:CoN
*  2023 05 28 13 45  0.00000000
PC06  -4457.905906  39457.491598  14607.763828   -186.297407
PC07  -9256.701305  25795.681003 -32012.721715    -86.843439
PC08 -19397.626515  31648.010256  19828.732500    474.564880
PC09    837.746484  42160.281672   5433.305136    601.183030
PC10    363.347226  27546.182305 -31568.696684    -70.408360
PC11  17204.757655   7046.727465  20863.403390    643.666795
PC12  13774.580309  23193.693072   7159.536786    671.460697
PC13 -11773.449219  31730.571527  25137.420433    284.424603
PC14  27674.454589   3052.551116  -1244.697006    325.188736
PC16  -6517.548270  37849.425985  17979.845264     63.149612
PC19 -25703.568518   3467.780877  10366.581505   -915.536393
PC20 -25971.780885  -8064.089315  -6336.746304    539.784632
PC21  10418.565213  15683.791936  20603.681839   -918.230016
PC22 -10650.462941  13570.782354  21944.050375   -467.165236
PC23  15373.377897 -23085.147428   3088.936714   -940.927490
PC24  14857.891719   7323.170452 -22467.823482     -2.351448
PC25  21203.756464 -12593.585077 -13085.124911    135.711495
PC26   1097.763570  20785.757948 -18584.537684   -126.709220
PC27  -9365.973659 -26258.101904   1063.439030    146.839773
PC28   3299.729717 -22546.300508  16110.115150    108.828807
PC29 -15312.847167   4802.001195 -22840.563817    126.437885
PC30 -17899.384179 -15615.641479 -14641.582912     -0.644912
PC32 -10525.171667 -15604.469038 -20591.513654   -556.010677
PC33  25698.189056  -3559.856798 -10240.822217   -887.143545
PC34  18100.253436  14462.920547  15553.232506    180.645376
PC35  -3036.202428  22300.131956 -16540.665148    618.791075
PC36 -21489.568482  11408.824815  13688.974204   -415.504314
PC37    439.851371 -21407.631614  17921.863548   -784.132369
PC38 -23964.536042  32541.364867  11829.067754     81.360143
PC39  -7656.029622  35104.136787  22305.108098     -3.100675
PC40 -13145.618903  19591.835787 -34983.803277    -24.534067
PC41  11294.244157 -13385.037126 -21667.383839   -933.858144
PC42  25313.523772   8857.672869   7700.995087   -672.715423
PC43  15775.518512  -3858.513288  22679.896834     23.535265
PC44  10183.482748  25968.324420  -1303.241056    120.605733
PC45 -15109.205862  23177.960833  -3556.081076   -103.263126
PC46 -15690.293335  -5826.759204  22326.553445    -57.349423
PE02   -857.045822  17605.141017 -23781.181767     40.758822
PE03   9981.382064  22908.484494  15857.924236    -20.848681
PE04 -23291.187136 -18217.635638   1429.743517   -132.277864
PE05  -9477.983913  14223.067722  24176.201382    -63.261842
PE07  23249.148270   2926.305055 -18066.004884    -48.455410
PE08  23177.265325  18364.848872  -1104.869387    -90.126715
PE09 -23271.913224  -3130.670995  18041.711683    -30.399616
PE10 -15252.450537  -5397.020759 -24800.151210   -537.043533
PE11 -16653.311622   6958.627636 -23481.283605   2058.243483
PE12 -11734.692507 -15829.272852 -22090.797948   -557.135673
PE13  16560.816704  -6094.658708  23759.173236    -19.214836
PE14  14003.222426  -7470.852938  18169.538438    237.987086
PE15  11516.034258  16173.493683  21955.648946    -25.174715
PE18 -22248.361338   4095.144581 -22597.928324    116.368544
PE19  -7510.683953 -22462.883291 -17741.450576  -2429.532930
PE21  19850.489118 -17146.942032  13713.537569   -531.720266
PE24 -28425.596014   6119.105681   5477.869818   -123.715187
PE25 -20128.079599  17042.062233 -13432.554104   -605.820531
PE26  11595.640819 -24957.100993  10896.036119    117.480319
PE27  28423.088154  -6728.412607  -4818.208645    -60.654234
PE30  19718.024313   8025.148835 -20579.807139   -209.543142
PE31 -20159.511138  -7549.690424  20322.940208   -524.712458
PE33    278.867612 -28700.243854  -7215.966993   -443.871655
PE34   -142.921076  28671.463263   7336.826557    -47.813167
PE36 -11850.232712  24512.463801 -11633.366480    -62.837816
PG01  13553.881508 -17616.671547  13928.418693    182.105086
PG02  15460.864284   -225.447239  22193.139666   -591.553529
PG03  21379.092485 -13030.713642  -8811.802989   -289.455637
PG04  11547.111257  -9908.291694 -21760.788551     53.198315
PG05 -25304.225980   3875.741631  -7481.603428   -128.930527
PG06  -6568.254844 -19736.738863 -16397.902016    587.239419
PG07   5812.016947 -25631.844996   -233.232257    166.970257
PG08  19993.575157    913.154824  17579.747189   -124.646409
PG09   1314.822452 -17537.336808 -19961.936785   -148.775511
PG10   7026.821686  13324.030847  22072.095998    -38.810412
PG11 -14157.025501  -5437.984548 -21799.841495   -213.646945
PG12 -23625.922808  10349.824396  -6424.658048   -381.589471
PG13 -20483.465278  -9838.157489  13743.507557    526.250140
PG14  -3375.920634 -15118.523563  21583.846696     71.977090
PG15 -19837.502720   1971.105901  17216.115219     43.654474
PG16  24788.926668   1719.864423 -10294.687068   -496.965446
PG17 -11463.928471 -21786.863636  10256.054343    716.427197
PG18  -4410.627569  25984.370695   2509.613501   -284.857813
PG19 -17075.776889 -20507.058958   1269.718078    322.960276
PG20 -21463.851730  -1342.639882 -15426.375606    431.107570
PG21  15330.752167  -8497.901169  20239.509576    153.533127
PG22  18555.666354  19081.744909   -810.079211    488.793130
PG23  -6694.832180  16509.365182  19652.644073     28.017143
PG24 -14351.096673  13980.143306  16869.663613   -204.984051
PG25 -14336.756106  16319.747203 -15414.499962    445.965905
PG26  17144.971641   8161.681674 -18817.060958    240.135157
PG27  22237.369127  11482.824881   9234.597802     28.050675
PG28   6627.772177  21099.602604 -14734.165718     80.896957
PG29  -5042.662756  15408.432805 -21076.251296   -600.995231
PG30  -1703.786814 -24599.602536   9622.699118   -514.558736
PG31  12768.509189  10369.301623 -20950.381326   -217.017861
PG32  14893.822809  20720.128042   7910.154828   -487.268156
PJ02 -35349.494537  18548.301160  -9009.838029     -0.187106
PJ03 -19836.028002  28911.525071 -18853.735332      5.134364
PJ04 -28598.799460  27353.146985  20740.021829     94.851218
PR01 -13752.971031   6066.619331  20619.421500     58.350244
PR02   5261.300307  12558.457152  21631.781532    -22.780337
PR03  20467.358859  11776.512311   9766.047515     78.645350
PR04  23992.994873   4735.864374  -7233.440629    188.950490
PR05  14612.007563  -4909.056533 -20314.036983    113.256462
PR07 -20914.713834 -11512.682767  -8876.669724     56.825344
PR08 -23972.821368  -4365.658092   7562.333474    -71.013512
PR09   6308.682816 -17588.987320  17341.349692    122.661757
PR11 -18543.436820   6353.105161  16345.088043    -66.027194
PR12 -18534.127454  17454.236880  -1445.868040     27.644868
PR13  -8283.357760  17997.817371 -16078.738727    -35.517077
PR14   8584.620635   7214.396439 -22896.449815     24.709008
PR15  19076.388832  -7090.856557 -15352.025617     89.045165
PR16  18497.478819 -17498.206900   1178.320144     15.023403
PR17   9877.451121  19491.744682  13129.033444    633.959824
PR18  11094.099067   4042.557597  22625.417858     83.775897
PR19   7612.693433 -12138.167869  21096.978554   -234.241704
PR20  -1589.278910 -24950.589210   4950.068608    -93.654928
PR21 -10061.128755 -18547.089943 -14358.383205    -10.919247
PR22 -11268.136569  -3256.693577 -22628.491614     80.181738
PR24   2673.123735  24998.911550  -4262.318312    174.244677
PR25  -9105.782310 -20034.557668 -12915.133911     61.418318
EOF
